{
  "type": "FeatureCollection",
  "features": [
    {
      "type": "Feature",
      "properties": {
        "norad_id": 37978,
        "name": "COSMOS 2251 DEB",
        "group": "cosmos-2251-debris",
        "lat": -10.165412638216694,
        "lon": 94.87296847316452,
        "alt_km": 330.12680855193776,
        "timestamp": "2025-12-08T21:31:05.064416+00:00",
        "meta_object_name": "COSMOS 2251 DEB",
        "meta_object_id": "1993-036BQD",
        "meta_epoch": "2025-11-19T05:08:53.100672",
        "meta_mean_motion": 15.61137081,
        "meta_eccentricity": 0.00148985,
        "meta_inclination": 74.0238,
        "meta_ra_of_asc_node": 142.2198,
        "meta_arg_of_pericenter": 140.9849,
        "meta_mean_anomaly": 219.2448,
        "meta_ephemeris_type": 0,
        "meta_classification_type": "U",
        "meta_norad_cat_id": 37978,
        "meta_element_set_no": 999,
        "meta_rev_at_epoch": 8032,
        "meta_bstar": 0.0043958825,
        "meta_mean_motion_dot": 0.0039117,
        "meta_mean_motion_ddot": 0,
        "tle_line1": "1 37978U 93036BQD 25323.21450348  .00391170  00000+0  43959-2 0  9999",
        "tle_line2": "2 37978  74.0238 142.2198 0014898 140.9849 219.2448 15.61137081 80328"
      },
      "geometry": {
        "type": "Point",
        "coordinates": [
          94.87296847316452,
          -10.165412638216694
        ]
      }
    },
    {
      "type": "Feature",
      "properties": {
        "norad_id": 37985,
        "name": "COSMOS 2251 DEB",
        "group": "cosmos-2251-debris",
        "lat": 6.640206290848147,
        "lon": 90.88013227025523,
        "alt_km": 785.80305774709,
        "timestamp": "2025-12-08T21:31:05.064426+00:00",
        "meta_object_name": "COSMOS 2251 DEB",
        "meta_object_id": "1993-036BQL",
        "meta_epoch": "2025-12-07T12:56:14.167968",
        "meta_mean_motion": 14.35480265,
        "meta_eccentricity": 0.00206161,
        "meta_inclination": 74.0254,
        "meta_ra_of_asc_node": 275.2818,
        "meta_arg_of_pericenter": 39.5807,
        "meta_mean_anomaly": 320.6846,
        "meta_ephemeris_type": 0,
        "meta_classification_type": "U",
        "meta_norad_cat_id": 37985,
        "meta_element_set_no": 999,
        "meta_rev_at_epoch": 64842,
        "meta_bstar": 0.0001017568,
        "meta_mean_motion_dot": 2.67e-06,
        "meta_mean_motion_ddot": 0,
        "tle_line1": "1 37985U 93036BQL 25341.53905287  .00000267  00000+0  10176-3 0  9999",
        "tle_line2": "2 37985  74.0254 275.2818 0020616  39.5807 320.6846 14.35480265648427"
      },
      "geometry": {
        "type": "Point",
        "coordinates": [
          90.88013227025523,
          6.640206290848147
        ]
      }
    },
    {
      "type": "Feature",
      "properties": {
        "norad_id": 37988,
        "name": "COSMOS 2251 DEB",
        "group": "cosmos-2251-debris",
        "lat": 67.02649325572855,
        "lon": 73.82950072695337,
        "alt_km": 613.5477538073919,
        "timestamp": "2025-12-08T21:31:05.064448+00:00",
        "meta_object_name": "COSMOS 2251 DEB",
        "meta_object_id": "1993-036BQP",
        "meta_epoch": "2025-12-08T13:00:57.141792",
        "meta_mean_motion": 14.6880347,
        "meta_eccentricity": 0.00631882,
        "meta_inclination": 74.0631,
        "meta_ra_of_asc_node": 32.1342,
        "meta_arg_of_pericenter": 70.9756,
        "meta_mean_anomaly": 289.8246,
        "meta_ephemeris_type": 0,
        "meta_classification_type": "U",
        "meta_norad_cat_id": 37988,
        "meta_element_set_no": 999,
        "meta_rev_at_epoch": 23334,
        "meta_bstar": 0.0011554492,
        "meta_mean_motion_dot": 6.927e-05,
        "meta_mean_motion_ddot": 0,
        "tle_line1": "1 37988U 93036BQP 25342.54232803  .00006927  00000+0  11554-2 0  9990",
        "tle_line2": "2 37988  74.0631  32.1342 0063188  70.9756 289.8246 14.68803470233348"
      },
      "geometry": {
        "type": "Point",
        "coordinates": [
          73.82950072695337,
          67.02649325572855
        ]
      }
    },
    {
      "type": "Feature",
      "properties": {
        "norad_id": 37993,
        "name": "COSMOS 2251 DEB",
        "group": "cosmos-2251-debris",
        "lat": -24.183646980621386,
        "lon": 166.86041862657973,
        "alt_km": 693.9460972655606,
        "timestamp": "2025-12-08T21:31:05.064458+00:00",
        "meta_object_name": "COSMOS 2251 DEB",
        "meta_object_id": "1993-036BQU",
        "meta_epoch": "2025-12-07T19:19:05.524320",
        "meta_mean_motion": 14.59827594,
        "meta_eccentricity": 0.00219292,
        "meta_inclination": 74.0217,
        "meta_ra_of_asc_node": 176.3367,
        "meta_arg_of_pericenter": 265.5218,
        "meta_mean_anomaly": 94.3442,
        "meta_ephemeris_type": 0,
        "meta_classification_type": "U",
        "meta_norad_cat_id": 37993,
        "meta_element_set_no": 999,
        "meta_rev_at_epoch": 65245,
        "meta_bstar": 0.0021240239,
        "meta_mean_motion_dot": 0.00010174,
        "meta_mean_motion_ddot": 0,
        "tle_line1": "1 37993U 93036BQU 25341.80492505  .00010174  00000+0  21240-2 0  9993",
        "tle_line2": "2 37993  74.0217 176.3367 0021929 265.5218  94.3442 14.59827594652451"
      },
      "geometry": {
        "type": "Point",
        "coordinates": [
          166.86041862657973,
          -24.183646980621386
        ]
      }
    },
    {
      "type": "Feature",
      "properties": {
        "norad_id": 37994,
        "name": "COSMOS 2251 DEB",
        "group": "cosmos-2251-debris",
        "lat": -17.366035061446702,
        "lon": -82.35026714232382,
        "alt_km": 749.1855698405534,
        "timestamp": "2025-12-08T21:31:05.064468+00:00",
        "meta_object_name": "COSMOS 2251 DEB",
        "meta_object_id": "1993-036BQV",
        "meta_epoch": "2025-12-08T13:15:45.229248",
        "meta_mean_motion": 14.39608975,
        "meta_eccentricity": 0.00227491,
        "meta_inclination": 74.0371,
        "meta_ra_of_asc_node": 283.4202,
        "meta_arg_of_pericenter": 3.6716,
        "meta_mean_anomaly": 356.4601,
        "meta_ephemeris_type": 0,
        "meta_classification_type": "U",
        "meta_norad_cat_id": 37994,
        "meta_element_set_no": 999,
        "meta_rev_at_epoch": 77004,
        "meta_bstar": 0.00074403409,
        "meta_mean_motion_dot": 2.306e-05,
        "meta_mean_motion_ddot": 0,
        "tle_line1": "1 37994U 93036BQV 25342.55260682  .00002306  00000+0  74403-3 0  9994",
        "tle_line2": "2 37994  74.0371 283.4202 0022749   3.6716 356.4601 14.39608975770049"
      },
      "geometry": {
        "type": "Point",
        "coordinates": [
          -82.35026714232382,
          -17.366035061446702
        ]
      }
    },
    {
      "type": "Feature",
      "properties": {
        "norad_id": 37996,
        "name": "COSMOS 2251 DEB",
        "group": "cosmos-2251-debris",
        "lat": -62.39577775944787,
        "lon": 176.8392434608412,
        "alt_km": 723.3666769419378,
        "timestamp": "2025-12-08T21:31:05.064479+00:00",
        "meta_object_name": "COSMOS 2251 DEB",
        "meta_object_id": "1993-036BQX",
        "meta_epoch": "2025-11-16T18:35:00.708864",
        "meta_mean_motion": 14.09591608,
        "meta_eccentricity": 0.02219827,
        "meta_inclination": 74.0658,
        "meta_ra_of_asc_node": 248.8308,
        "meta_arg_of_pericenter": 5.4709,
        "meta_mean_anomaly": 354.8776,
        "meta_ephemeris_type": 0,
        "meta_classification_type": "U",
        "meta_norad_cat_id": 37996,
        "meta_element_set_no": 999,
        "meta_rev_at_epoch": 55769,
        "meta_bstar": 0.0096790999,
        "meta_mean_motion_dot": 0.00021331,
        "meta_mean_motion_ddot": 0,
        "tle_line1": "1 37996U 93036BQX 25320.77431376  .00021331  00000+0  96791-2 0  9998",
        "tle_line2": "2 37996  74.0658 248.8308 0221982   5.4709 354.8776 14.09591608557693"
      },
      "geometry": {
        "type": "Point",
        "coordinates": [
          176.8392434608412,
          -62.39577775944787
        ]
      }
    },
    {
      "type": "Feature",
      "properties": {
        "norad_id": 37998,
        "name": "COSMOS 2251 DEB",
        "group": "cosmos-2251-debris",
        "lat": 15.808123359022492,
        "lon": 57.62073094966038,
        "alt_km": 753.5660751108335,
        "timestamp": "2025-12-08T21:31:05.064489+00:00",
        "meta_object_name": "COSMOS 2251 DEB",
        "meta_object_id": "1993-036BQZ",
        "meta_epoch": "2025-12-07T01:34:33.386016",
        "meta_mean_motion": 14.45444842,
        "meta_eccentricity": 0.00199405,
        "meta_inclination": 74.0387,
        "meta_ra_of_asc_node": 245.6796,
        "meta_arg_of_pericenter": 320.6712,
        "meta_mean_anomaly": 39.2997,
        "meta_ephemeris_type": 0,
        "meta_classification_type": "U",
        "meta_norad_cat_id": 37998,
        "meta_element_set_no": 999,
        "meta_rev_at_epoch": 64205,
        "meta_bstar": 0.00093558552,
        "meta_mean_motion_dot": 3.277e-05,
        "meta_mean_motion_ddot": 0,
        "tle_line1": "1 37998U 93036BQZ 25341.06566419  .00003277  00000+0  93559-3 0  9991",
        "tle_line2": "2 37998  74.0387 245.6796 0019940 320.6712  39.2997 14.45444842642056"
      },
      "geometry": {
        "type": "Point",
        "coordinates": [
          57.62073094966038,
          15.808123359022492
        ]
      }
    }
  ]
}